[{"OBJECT_NAME":"GAOFEN-11 02","OBJECT_ID":"2020-064A","EPOCH":"2026-03-09T22:52:21.157824","MEAN_MOTION":15.23715176,"ECCENTRICITY":0.0015622,"INCLINATION":97.4982,"RA_OF_ASC_NODE":194.9416,"ARG_OF_PERICENTER":294.7165,"MEAN_ANOMALY":65.2445,"EPHEMERIS_TYPE":0,"CLASSIFICATION_TYPE":"U","NORAD_CAT_ID":46396,"ELEMENT_SET_NO":999,"REV_AT_EPOCH":30642,"BSTAR":0.00039263481,"MEAN_MOTION_DOT":9.392e-5,"MEAN_MOTION_DDOT":0},{"OBJECT_NAME":"FENGYUN 1C DEB","OBJECT_ID":"1999-025DXL","EPOCH":"2026-02-25T04:10:22.321344","MEAN_MOTION":15.11307044,"ECCENTRICITY":0.00591738,"INCLINATION":99.4273,"RA_OF_ASC_NODE":43.0945,"ARG_OF_PERICENTER":165.3437,"MEAN_ANOMALY":194.9519,"EPHEMERIS_TYPE":0,"CLASSIFICATION_TYPE":"U","NORAD_CAT_ID":36283,"ELEMENT_SET_NO":999,"REV_AT_EPOCH":67788,"BSTAR":0.0012995165,"MEAN_MOTION_DOT":0.00022794,"MEAN_MOTION_DDOT":0}]
